[Satellite]
VERSION=1.1
NAME=FLOCK 3P-18
NICKNAME=FLOCK 3P-18
TLE1=1 41957U 17008K   17186.12964365  .00002700  00000-0  11964-3 0  9994
TLE2=2 41957  97.4943 247.3514 0010916 123.6879 236.5400 15.22453841 21102
